CCSDS_OMM_VERS = 2.0
CREATION_DATE  = 
ORIGINATOR     = 

OBJECT_NAME    = STARLINK-35746
OBJECT_ID      = 2025-268AB
CENTER_NAME    = EARTH
REF_FRAME      = TEME
TIME_SYSTEM    = UTC
MEAN_ELEMENT_THEORY = SGP/SGP4

EPOCH          = 2025-12-09T14:00:01.999872
MEAN_MOTION    = 15.50637129
ECCENTRICITY   = .00018905
INCLINATION    = 43.0003
RA_OF_ASC_NODE = 139.5373
ARG_OF_PERICENTER = 268.6047
MEAN_ANOMALY   = 237.7045

EPHEMERIS_TYPE = 0
CLASSIFICATION_TYPE = U
NORAD_CAT_ID   = 66582
ELEMENT_SET_NO = 999
REV_AT_EPOCH   = 416
BSTAR          = -.24160713E-2
MEAN_MOTION_DOT = -.139875E-2
MEAN_MOTION_DDOT = 0

CCSDS_OMM_VERS = 2.0
CREATION_DATE  = 
ORIGINATOR     = 

OBJECT_NAME    = STARLINK-35941
OBJECT_ID      = 2025-268AC
CENTER_NAME    = EARTH
REF_FRAME      = TEME
TIME_SYSTEM    = UTC
MEAN_ELEMENT_THEORY = SGP/SGP4

EPOCH          = 2025-12-09T14:00:01.999872
MEAN_MOTION    = 15.50640345
ECCENTRICITY   = .00020103
INCLINATION    = 43.0004
RA_OF_ASC_NODE = 139.5330
ARG_OF_PERICENTER = 267.9280
MEAN_ANOMALY   = 240.2967

EPHEMERIS_TYPE = 0
CLASSIFICATION_TYPE = U
NORAD_CAT_ID   = 66583
ELEMENT_SET_NO = 999
REV_AT_EPOCH   = 416
BSTAR          = -.24708619E-2
MEAN_MOTION_DOT = -.143001E-2
MEAN_MOTION_DDOT = 0

CCSDS_OMM_VERS = 2.0
CREATION_DATE  = 
ORIGINATOR     = 

OBJECT_NAME    = STARLINK-35939
OBJECT_ID      = 2025-268AD
CENTER_NAME    = EARTH
REF_FRAME      = TEME
TIME_SYSTEM    = UTC
MEAN_ELEMENT_THEORY = SGP/SGP4

EPOCH          = 2025-12-09T14:00:01.999872
MEAN_MOTION    = 15.50647670
ECCENTRICITY   = .00019158
INCLINATION    = 43.0003
RA_OF_ASC_NODE = 139.5285
ARG_OF_PERICENTER = 266.3181
MEAN_ANOMALY   = 243.8222

EPHEMERIS_TYPE = 0
CLASSIFICATION_TYPE = U
NORAD_CAT_ID   = 66584
ELEMENT_SET_NO = 999
REV_AT_EPOCH   = 416
BSTAR          = -.27166754E-2
MEAN_MOTION_DOT = -.156956E-2
MEAN_MOTION_DDOT = 0

CCSDS_OMM_VERS = 2.0
CREATION_DATE  = 
ORIGINATOR     = 

OBJECT_NAME    = STARLINK-35963
OBJECT_ID      = 2025-268AE
CENTER_NAME    = EARTH
REF_FRAME      = TEME
TIME_SYSTEM    = UTC
MEAN_ELEMENT_THEORY = SGP/SGP4

EPOCH          = 2025-12-09T14:00:01.999872
MEAN_MOTION    = 15.50580914
ECCENTRICITY   = .00017282
INCLINATION    = 43.0007
RA_OF_ASC_NODE = 139.5248
ARG_OF_PERICENTER = 277.7702
MEAN_ANOMALY   = 234.3094

EPHEMERIS_TYPE = 0
CLASSIFICATION_TYPE = U
NORAD_CAT_ID   = 66585
ELEMENT_SET_NO = 999
REV_AT_EPOCH   = 416
BSTAR          = -.78439994E-3
MEAN_MOTION_DOT = -.46093E-3
MEAN_MOTION_DDOT = 0

CCSDS_OMM_VERS = 2.0
CREATION_DATE  = 
ORIGINATOR     = 

OBJECT_NAME    = TJS-21
OBJECT_ID      = 2025-269A
CENTER_NAME    = EARTH
REF_FRAME      = TEME
TIME_SYSTEM    = UTC
MEAN_ELEMENT_THEORY = SGP/SGP4

EPOCH          = 2025-12-09T05:37:30.492480
MEAN_MOTION    = 2.00564420
ECCENTRICITY   = .68055916
INCLINATION    = 63.2636
RA_OF_ASC_NODE = 162.6946
ARG_OF_PERICENTER = 269.7960
MEAN_ANOMALY   = 18.6520

EPHEMERIS_TYPE = 0
CLASSIFICATION_TYPE = U
NORAD_CAT_ID   = 66586
ELEMENT_SET_NO = 999
REV_AT_EPOCH   = 36
BSTAR          = -.40942106E-1
MEAN_MOTION_DOT = .1078E-4
MEAN_MOTION_DDOT = 0

CCSDS_OMM_VERS = 2.0
CREATION_DATE  = 
ORIGINATOR     = 

OBJECT_NAME    = CZ-3B R/B
OBJECT_ID      = 2025-269B
CENTER_NAME    = EARTH
REF_FRAME      = TEME
TIME_SYSTEM    = UTC
MEAN_ELEMENT_THEORY = SGP/SGP4

EPOCH          = 2025-12-08T20:16:41.020608
MEAN_MOTION    = 2.02868931
ECCENTRICITY   = .7519771
INCLINATION    = 51.3469
RA_OF_ASC_NODE = 170.5472
ARG_OF_PERICENTER = 228.0184
MEAN_ANOMALY   = 37.9662

EPHEMERIS_TYPE = 0
CLASSIFICATION_TYPE = U
NORAD_CAT_ID   = 66587
ELEMENT_SET_NO = 999
REV_AT_EPOCH   = 37
BSTAR          = .1255E-2
MEAN_MOTION_DOT = .50168E-3
MEAN_MOTION_DDOT = .42215E-6

CCSDS_OMM_VERS = 2.0
CREATION_DATE  = 
ORIGINATOR     = 

OBJECT_NAME    = STARLINK-36076
OBJECT_ID      = 2025-270A
CENTER_NAME    = EARTH
REF_FRAME      = TEME
TIME_SYSTEM    = UTC
MEAN_ELEMENT_THEORY = SGP/SGP4

EPOCH          = 2025-12-09T14:00:01.999872
MEAN_MOTION    = 15.55501406
ECCENTRICITY   = .00018556
INCLINATION    = 42.9994
RA_OF_ASC_NODE = 211.2202
ARG_OF_PERICENTER = 256.3699
MEAN_ANOMALY   = 120.7228

EPHEMERIS_TYPE = 0
CLASSIFICATION_TYPE = U
NORAD_CAT_ID   = 66588
ELEMENT_SET_NO = 999
REV_AT_EPOCH   = 389
BSTAR          = -.31758303E-1
MEAN_MOTION_DOT = -.1994044E-1
MEAN_MOTION_DDOT = 0

CCSDS_OMM_VERS = 2.0
CREATION_DATE  = 
ORIGINATOR     = 

OBJECT_NAME    = STARLINK-35447
OBJECT_ID      = 2025-270B
CENTER_NAME    = EARTH
REF_FRAME      = TEME
TIME_SYSTEM    = UTC
MEAN_ELEMENT_THEORY = SGP/SGP4

EPOCH          = 2025-12-09T14:00:01.999872
MEAN_MOTION    = 15.55505694
ECCENTRICITY   = .00016852
INCLINATION    = 42.9992
RA_OF_ASC_NODE = 211.2105
ARG_OF_PERICENTER = 259.9629
MEAN_ANOMALY   = 120.9620

EPHEMERIS_TYPE = 0
CLASSIFICATION_TYPE = U
NORAD_CAT_ID   = 66589
ELEMENT_SET_NO = 999
REV_AT_EPOCH   = 400
BSTAR          = -.31842383E-1
MEAN_MOTION_DOT = -.1998951E-1
MEAN_MOTION_DDOT = 0

CCSDS_OMM_VERS = 2.0
CREATION_DATE  = 
ORIGINATOR     = 

OBJECT_NAME    = STARLINK-35429
OBJECT_ID      = 2025-270C
CENTER_NAME    = EARTH
REF_FRAME      = TEME
TIME_SYSTEM    = UTC
MEAN_ELEMENT_THEORY = SGP/SGP4

EPOCH          = 2025-12-09T14:00:01.999872
MEAN_MOTION    = 15.55506176
ECCENTRICITY   = .00016734
INCLINATION    = 42.9992
RA_OF_ASC_NODE = 211.2153
ARG_OF_PERICENTER = 260.2363
MEAN_ANOMALY   = 118.7716

EPHEMERIS_TYPE = 0
CLASSIFICATION_TYPE = U
NORAD_CAT_ID   = 66590
ELEMENT_SET_NO = 999
REV_AT_EPOCH   = 400
BSTAR          = -.31852221E-1
MEAN_MOTION_DOT = -.1999528E-1
MEAN_MOTION_DDOT = 0

CCSDS_OMM_VERS = 2.0
CREATION_DATE  = 
ORIGINATOR     = 

OBJECT_NAME    = STARLINK-36058
OBJECT_ID      = 2025-270D
CENTER_NAME    = EARTH
REF_FRAME      = TEME
TIME_SYSTEM    = UTC
MEAN_ELEMENT_THEORY = SGP/SGP4

EPOCH          = 2025-12-09T14:00:01.999872
MEAN_MOTION    = 15.55504088
ECCENTRICITY   = .00017801
INCLINATION    = 42.9995
RA_OF_ASC_NODE = 211.2056
ARG_OF_PERICENTER = 258.2709
MEAN_ANOMALY   = 124.5701

EPHEMERIS_TYPE = 0
CLASSIFICATION_TYPE = U
NORAD_CAT_ID   = 66591
ELEMENT_SET_NO = 999
REV_AT_EPOCH   = 389
BSTAR          = -.31803442E-1
MEAN_MOTION_DOT = -.1996713E-1
MEAN_MOTION_DDOT = 0

CCSDS_OMM_VERS = 2.0
CREATION_DATE  = 
ORIGINATOR     = 

OBJECT_NAME    = STARLINK-36066
OBJECT_ID      = 2025-270E
CENTER_NAME    = EARTH
REF_FRAME      = TEME
TIME_SYSTEM    = UTC
MEAN_ELEMENT_THEORY = SGP/SGP4

EPOCH          = 2025-12-09T14:00:01.999872
MEAN_MOTION    = 15.55505625
ECCENTRICITY   = .00017365
INCLINATION    = 42.9995
RA_OF_ASC_NODE = 211.2009
ARG_OF_PERICENTER = 260.0319
MEAN_ANOMALY   = 124.7253

EPHEMERIS_TYPE = 0
CLASSIFICATION_TYPE = U
NORAD_CAT_ID   = 66592
ELEMENT_SET_NO = 999
REV_AT_EPOCH   = 379
BSTAR          = -.31829303E-1
MEAN_MOTION_DOT = -.1998243E-1
MEAN_MOTION_DDOT = 0

CCSDS_OMM_VERS = 2.0
CREATION_DATE  = 
ORIGINATOR     = 

OBJECT_NAME    = STARLINK-36031
OBJECT_ID      = 2025-270F
CENTER_NAME    = EARTH
REF_FRAME      = TEME
TIME_SYSTEM    = UTC
MEAN_ELEMENT_THEORY = SGP/SGP4

EPOCH          = 2025-12-09T14:00:01.999872
MEAN_MOTION    = 15.55504909
ECCENTRICITY   = .00018055
INCLINATION    = 42.9995
RA_OF_ASC_NODE = 211.1962
ARG_OF_PERICENTER = 255.2752
MEAN_ANOMALY   = 131.4018

EPHEMERIS_TYPE = 0
CLASSIFICATION_TYPE = U
NORAD_CAT_ID   = 66593
ELEMENT_SET_NO = 999
REV_AT_EPOCH   = 389
BSTAR          = -.31863333E-1
MEAN_MOTION_DOT = -.2000152E-1
MEAN_MOTION_DDOT = 0

CCSDS_OMM_VERS = 2.0
CREATION_DATE  = 
ORIGINATOR     = 

OBJECT_NAME    = STARLINK-36032
OBJECT_ID      = 2025-270G
CENTER_NAME    = EARTH
REF_FRAME      = TEME
TIME_SYSTEM    = UTC
MEAN_ELEMENT_THEORY = SGP/SGP4

EPOCH          = 2025-12-09T14:00:01.999872
MEAN_MOTION    = 15.55504739
ECCENTRICITY   = .00017101
INCLINATION    = 42.9994
RA_OF_ASC_NODE = 211.1914
ARG_OF_PERICENTER = 258.2811
MEAN_ANOMALY   = 130.3115

EPHEMERIS_TYPE = 0
CLASSIFICATION_TYPE = U
NORAD_CAT_ID   = 66594
ELEMENT_SET_NO = 999
REV_AT_EPOCH   = 363
BSTAR          = -.31825284E-1
MEAN_MOTION_DOT = -.1997941E-1
MEAN_MOTION_DDOT = 0

CCSDS_OMM_VERS = 2.0
CREATION_DATE  = 
ORIGINATOR     = 

OBJECT_NAME    = STARLINK-35711
OBJECT_ID      = 2025-270H
CENTER_NAME    = EARTH
REF_FRAME      = TEME
TIME_SYSTEM    = UTC
MEAN_ELEMENT_THEORY = SGP/SGP4

EPOCH          = 2025-12-09T14:00:01.999872
MEAN_MOTION    = 15.55506321
ECCENTRICITY   = .00017324
INCLINATION    = 42.9996
RA_OF_ASC_NODE = 211.1859
ARG_OF_PERICENTER = 261.0498
MEAN_ANOMALY   = 129.4603

EPHEMERIS_TYPE = 0
CLASSIFICATION_TYPE = U
NORAD_CAT_ID   = 66595
ELEMENT_SET_NO = 999
REV_AT_EPOCH   = 400
BSTAR          = -.31855459E-1
MEAN_MOTION_DOT = -.1999757E-1
MEAN_MOTION_DDOT = 0

CCSDS_OMM_VERS = 2.0
CREATION_DATE  = 
ORIGINATOR     = 

OBJECT_NAME    = STARLINK-35811
OBJECT_ID      = 2025-270J
CENTER_NAME    = EARTH
REF_FRAME      = TEME
TIME_SYSTEM    = UTC
MEAN_ELEMENT_THEORY = SGP/SGP4

EPOCH          = 2025-12-09T14:00:01.999872
MEAN_MOTION    = 15.55503764
ECCENTRICITY   = .0001745
INCLINATION    = 42.9996
RA_OF_ASC_NODE = 211.1813
ARG_OF_PERICENTER = 259.1230
MEAN_ANOMALY   = 133.3047

EPHEMERIS_TYPE = 0
CLASSIFICATION_TYPE = U
NORAD_CAT_ID   = 66596
ELEMENT_SET_NO = 999
REV_AT_EPOCH   = 400
BSTAR          = -.3180051E-1
MEAN_MOTION_DOT = -.1996504E-1
MEAN_MOTION_DDOT = 0

